{
    "links": {
        "self": "http://www.neowsapp.com/rest/v1/neo/3674248?api_key=iIulBulltgU6a56xZRHN4H3l9WmuAYTsLGpBGhQ2"
    },
    "id": "3674248",
    "neo_reference_id": "3674248",
    "name": "(2014 NM2)",
    "designation": "2014 NM2",
    "nasa_jpl_url": "http://ssd.jpl.nasa.gov/sbdb.cgi?sstr=3674248",
    "absolute_magnitude_h": 23.2,
    "estimated_diameter": {
        "kilometers": {
            "estimated_diameter_min": 0.0608912622,
            "estimated_diameter_max": 0.1361570015
        },
        "meters": {
            "estimated_diameter_min": 60.8912622106,
            "estimated_diameter_max": 136.1570015386
        },
        "miles": {
            "estimated_diameter_min": 0.0378360645,
            "estimated_diameter_max": 0.0846040122
        },
        "feet": {
            "estimated_diameter_min": 199.7744887109,
            "estimated_diameter_max": 446.7093369279
        }
    },
    "is_potentially_hazardous_asteroid": false,
    "close_approach_data": [
        {
            "close_approach_date": "2014-06-29",
            "close_approach_date_full": "2014-Jun-29 18:45",
            "epoch_date_close_approach": 1404067500000,
            "relative_velocity": {
                "kilometers_per_second": "17.5518827256",
                "kilometers_per_hour": "63186.7778122514",
                "miles_per_hour": "39261.8064689515"
            },
            "miss_distance": {
                "astronomical": "0.080941401",
                "lunar": "31.486204989",
                "kilometers": "12108661.18441587",
                "miles": "7523973.168724206"
            },
            "orbiting_body": "Earth"
        }
    ],
    "orbital_data": {
        "orbit_id": "4",
        "orbit_determination_date": "2017-04-06 08:39:43",
        "first_observation_date": "2014-07-02",
        "last_observation_date": "2014-07-03",
        "data_arc_in_days": 1,
        "observations_used": 15,
        "orbit_uncertainty": "9",
        "minimum_orbit_intersection": ".0187446",
        "jupiter_tisserand_invariant": "3.026",
        "epoch_osculation": "2456840.5",
        "eccentricity": ".6826173651552967",
        "semi_major_axis": "2.613652038040255",
        "inclination": "2.427693599154378",
        "ascending_node_longitude": "134.2212736210663",
        "orbital_period": "1543.370089819005",
        "perihelion_distance": ".829527770400445",
        "perihelion_argument": "79.9985841037078",
        "aphelion_distance": "4.397776305680066",
        "perihelion_time": "2456797.249880213678",
        "mean_anomaly": "10.08834059036473",
        "mean_motion": ".2332557838037526",
        "equinox": "J2000",
        "orbit_class": {
            "orbit_class_type": "APO",
            "orbit_class_description": "Near-Earth asteroid orbits which cross the Earth’s orbit similar to that of 1862 Apollo",
            "orbit_class_range": "a (semi-major axis) > 1.0 AU; q (perihelion) < 1.017 AU"
        }
    },
    "is_sentry_object": false
}